FENGYUN 3C              
1 39260U 13052A   23040.41801869  .00000145  00000+0  94399-4 0  9994
2 39260  98.4373  61.3018 0010363 316.5627  43.4733 14.15987149485457
METEOR-M 2              
1 40069U 14037A   23040.45001600  .00000063  00000+0  48424-4 0  9993
2 40069  98.4257  52.3430 0005842   5.1733 354.9508 14.20742536445518
HIMAWARI-8              
1 40267U 14060A   23040.41414625 -.00000267  00000+0  00000+0 0  9990
2 40267   0.0191 221.8709 0001033 145.9971  61.0972  1.00266669 30480
FENGYUN 2G              
1 40367U 14090A   23040.11909303 -.00000293  00000+0  00000+0 0  9992
2 40367   2.5281  87.0639 0001191 270.6497 283.7697  1.00264703 29725
METEOSAT-11 (MSG-4)     
1 40732U 15034A   23040.31451676  .00000009  00000+0  00000+0 0  9998
2 40732   0.4659  10.7545 0000137 292.1999 310.0339  1.00266304 27747
ELEKTRO-L 2             
1 41105U 15074A   23040.31155315 -.00000107  00000+0  00000+0 0  9998
2 41105   3.5837  85.3721 0001972 179.9450 331.4947  1.00272775 26245
HIMAWARI-9              
1 41836U 16064A   23040.41414625 -.00000265  00000+0  00000+0 0  9997
2 41836   0.0043 303.0580 0001306  55.6409  70.3798  1.00271771 22913
GOES 16                 
1 41866U 16071A   23040.27422480 -.00000239  00000+0  00000+0 0  9991
2 41866   0.0775 269.1140 0000780  79.3595 174.1409  1.00271681 22840
FENGYUN 4A              
1 41882U 16077A   23040.55039572 -.00000319  00000+0  00000+0 0  9991
2 41882   0.1216  79.8534 0004943 339.4544  22.7961  1.00266565 22713
CYGFM05                 
1 41884U 16078A   23040.41752240  .00009358  00000+0  44707-3 0  9990
2 41884  34.9553 164.3150 0014078  53.5030 306.6977 15.18200514340790
CYGFM04                 
1 41885U 16078B   23040.31818740  .00009469  00000+0  44514-3 0  9997
2 41885  34.9484 152.8011 0012449  72.9248 287.2827 15.18772925340831
CYGFM02                 
1 41886U 16078C   23040.43435750  .00009987  00000+0  46870-3 0  9999
2 41886  34.9581 154.3600 0013214  67.1640 293.0467 15.18816978340937
CYGFM01                 
1 41887U 16078D   23040.45047830  .00009601  00000+0  46131-3 0  9993
2 41887  34.9518 166.8929 0014518  52.7232 307.4802 15.17992251340745
CYGFM08                 
1 41888U 16078E   23040.42495666  .00009819  00000+0  46491-3 0  9995
2 41888  34.9490 158.5477 0013657  66.6309 293.5838 15.18504808340880
CYGFM07                 
1 41890U 16078G   23040.40748593  .00009905  00000+0  46581-3 0  9992
2 41890  34.9509 152.0470 0011995  71.6170 288.5846 15.18758225340855
CYGFM03                 
1 41891U 16078H   23040.40593323  .00009763  00000+0  45919-3 0  9998
2 41891  34.9540 152.5847 0011519  69.2032 290.9914 15.18760555340847
FENGYUN 3D              
1 43010U 17072A   23040.45364223  .00000144  00000+0  90042-4 0  9990
2 43010  98.8456 349.1894 0001206   1.8518 358.2671 14.19140134271381
NOAA 20                 
1 43013U 17073A   23040.47421638  .00000208  00000+0  11928-3 0  9996
2 43013  98.7417 340.5749 0001617  85.4287 274.7073 14.19555226270852
GOES 17                 
1 43226U 18022A   23039.64146603 -.00000111  00000+0  00000+0 0  9999
2 43226   0.0133 122.7148 0001555 257.4446 243.8352  1.00498224 18140
FENGYUN 2H              
1 43491U 18050A   23040.26855044 -.00000121  00000+0  00000+0 0  9991
2 43491   1.7476  93.0790 0001807  66.4426 155.6144  1.00271256 17165
METOP-C                 
1 43689U 18087A   23040.43785822  .00000274  00000+0  14544-3 0  9995
2 43689  98.7022 101.9143 0004037  80.0350 280.1283 14.21485060220974
GEO-KOMPSAT-2A          
1 43823U 18100A   23040.26823219 -.00000335  00000+0  00000+0 0  9992
2 43823   0.0138 105.9382 0001258 295.7206 322.2462  1.00266203 15343
METEOR-M2 2             
1 44387U 19038A   23040.41020415  .00000071  00000+0  50506-4 0  9990
2 44387  98.7572   4.6917 0000976   4.1363 355.9831 14.23747516187125
FENGYUN 3E              
1 49008U 21062A   23040.44967048  .00000051  00000+0  44793-4 0  9999
2 49008  98.7190  43.7497 0002548  47.6538 312.4858 14.19758077 82946
GOES 18                 
1 51850U 22021A   23040.46651325  .00000107  00000+0  00000+0 0  9993
2 51850   0.0047 178.1433 0000302 159.4836 192.5890  1.00272075  3517
NOAA 21 (JPSS-2)        
1 54234U 22150A   23040.42128223  .00000269  00000+0  14841-3 0  9998
2 54234  98.7056 340.4535 0001106  82.7445 277.3857 14.19567934 12929
METEOSAT-12             
1 54743U 22170C   23040.31373227 -.00000022  00000+0  00000+0 0  9995
2 54743   0.8714 299.9834 0002210  88.1132 220.5232  1.00265376   700
ONEWEB-0532             
1 55140U 23004A   23040.37546850  .00005581  00000+0  55812-3 0  9993
2 55140  86.5091 272.4205 0014233 111.4903 248.7844 14.91198092  4645
ONEWEB-0533             
1 55141U 23004B   23040.17115187  .00005415  00000+0  53935-3 0  9997
2 55141  86.5083 272.5034 0014501 111.7400 248.5373 14.91350757  4611
ONEWEB-0541             
1 55142U 23004C   23040.45624944  .00002785  00000+0  40932-3 0  9995
2 55142  86.6360 272.7516 0012743 107.9894 252.2715 14.75084682  4635
ONEWEB-0543             
1 55143U 23004D   23040.38147300  .00005829  00000+0  58776-3 0  9991
2 55143  86.5110 272.4321 0012380 111.6803 248.5744 14.90899263  4645
ONEWEB-0544             
1 55144U 23004E   23040.29521444  .00004916  00000+0  48300-3 0  9995
2 55144  86.5080 272.4405 0016274 117.1533 243.1356 14.91855435  4635
ONEWEB-0560             
1 55145U 23004F   23040.36168408  .00016277  00000+0  16009-2 0  9994
2 55145  86.5099 272.4140 0016286 119.0372 241.2490 14.91921806  4642
ONEWEB-0565             
1 55146U 23004G   23040.28955337  .00005280  00000+0  51519-3 0  9999
2 55146  86.5080 272.4369 0016639 121.2006 239.0856 14.92140627  4632
ONEWEB-0567             
1 55147U 23004H   23040.22370573  .00005073  00000+0  49566-3 0  9996
2 55147  86.5072 272.4644 0016520 119.6726 240.6149 14.92079080  4625
ONEWEB-0569             
1 55148U 23004J   23040.23647035  .00005434  00000+0  53998-3 0  9993
2 55148  86.5085 272.4727 0014794 112.4100 247.8697 14.91440218  4621
ONEWEB-0570             
1 55149U 23004K   23040.23503723  .00005567  00000+0  55222-3 0  9998
2 55149  86.5082 272.4717 0015091 113.1311 247.1509 14.91514487  4626
ONEWEB-0571             
1 55150U 23004L   23040.22586820 -.00003293  00000+0 -32817-3 0  9999
2 55150  86.5110 272.4737 0016653 116.5450 243.7487 14.91943524  4623
ONEWEB-0572             
1 55151U 23004M   23040.37176656  .00005615  00000+0  55887-3 0  9998
2 55151  86.5094 272.4219 0014585 111.3350 248.9436 14.91386566  4644
ONEWEB-0573             
1 55152U 23004N   23040.30351495  .00005161  00000+0  51274-3 0  9990
2 55152  86.5092 272.4509 0015140 114.0157 246.2657 14.91437061  4630
ONEWEB-0588             
1 55153U 23004P   23040.38366819  .00005720  00000+0  57836-3 0  9996
2 55153  86.5112 272.4347 0011722 112.0907 248.1566 14.90792286  4640
ONEWEB-0598             
1 55154U 23004Q   23040.39087397  .00002728  00000+0  40017-3 0  9997
2 55154  86.6329 272.7738 0012710 109.1216 251.1380 14.75151855  4627
ONEWEB-0599             
1 55155U 23004R   23040.37002649  .00005689  00000+0  56575-3 0  9998
2 55155  86.5094 272.4213 0015026 111.5380 248.7451 14.91421269  4643
ONEWEB-0614             
1 55156U 23004S   23040.45246694  .00002858  00000+0  41852-3 0  9995
2 55156  86.6338 272.7400 0013405 111.2341 249.0311 14.75245026  4635
ONEWEB-0616             
1 55157U 23004T   23040.30717593  .00005385  00000+0  53770-3 0  9991
2 55157  86.5080 272.4441 0014126 111.0621 249.2118 14.91256487  4639
ONEWEB-0617             
1 55158U 23004U   23040.40170950 -.00003782  00000+0 -56537-3 0  9998
2 55158  86.6340 272.8003 0010643 113.3443 246.8896 14.75106032  4622
ONEWEB-0618             
1 55159U 23004V   23040.17163100  .00009837  00000+0  98146-3 0  9999
2 55159  86.5093 272.5116 0014289 111.3967 248.8787 14.91360166  4616
ONEWEB-0619             
1 55160U 23004W   23040.36739544  .00002447  00000+0  24052-3 0  9998
2 55160  86.5092 272.4145 0015260 112.9706 247.3134 14.91610233  4642
ONEWEB-0620             
1 55161U 23004X   23040.32450490  .00002818  00000+0  41320-3 0  9994
2 55161  86.6310 272.7992 0012680 112.6921 247.5640 14.75190242  4615
ONEWEB-0621             
1 55162U 23004Y   23040.50001157 -.00924867  00000+0 -27311+0 0  9996
2 55162  86.7747 273.1232 0008154 114.8523 294.0113 14.46651947  1303
ONEWEB-0622             
1 55163U 23004Z   23040.12760456 -.00056888  00000+0 -85757-2 0  9999
2 55163  86.6347 272.9087 0012533 115.7166 244.5348 14.74790353  4582
ONEWEB-0623             
1 55164U 23004AA  23040.29358425  .00005188  00000+0  50884-3 0  9996
2 55164  86.5074 272.4370 0016437 118.4890 241.7995 14.91934608  4635
ONEWEB-0624             
1 55165U 23004AB  23040.22312726 -.00001713  00000+0 -17151-3 0  9996
2 55165  86.5100 272.4719 0016514 120.7284 239.5574 14.92083420  4627
ONEWEB-0625             
1 55166U 23004AC  23040.37284092  .00006367  00000+0  63507-3 0  9991
2 55166  86.5082 272.4147 0014433 111.0896 249.1876 14.91324073  4647
ONEWEB-0626             
1 55167U 23004AD  23040.22257101  .00005174  00000+0  50484-3 0  9992
2 55167  86.5078 272.4655 0016584 121.4364 238.8488 14.92134392  4627
ONEWEB-0627             
1 55168U 23004AE  23040.29262807  .00005349  00000+0  52399-3 0  9990
2 55168  86.5072 272.4353 0016477 119.0152 241.2729 14.91985596  4632
ONEWEB-0628             
1 55169U 23004AF  23040.22447936  .00003357  00000+0  32741-3 0  9998
2 55169  86.5107 272.4742 0016447 119.9246 240.3618 14.92039517  4624
ONEWEB-0629             
1 55170U 23004AG  23040.22137761  .00013318  00000+0  13000-2 0  9996
2 55170  86.5088 272.4672 0016974 121.7073 238.5812 14.92214653  4621
ONEWEB-0631             
1 55171U 23004AH  23040.29378411  .00005190  00000+0  50906-3 0  9999
2 55171  86.5099 272.4435 0016821 117.4007 242.8935 14.91928344  4634
